ATLAS CENTAUR 2         
1 00694U 63047A   26195.41989026  .00000611  00000+0  62847-4 0  9999
2 00694  30.3510 207.0932 0545686 117.6838 248.0210 14.12564194149552
THOR AGENA D R/B        
1 00733U 64002A   26195.64663535  .00000069  00000+0  42075-4 0  9992
2 00733  99.1155 215.8596 0031816 248.2061 111.5736 14.34075875256497
SL-3 R/B                
1 00877U 64053B   26195.70235586  .00000032  00000+0  30515-4 0  9991
2 00877  65.0780 318.8341 0080283 252.4709 106.7607 14.61439394285352
SL-8 R/B                
1 02802U 67045B   26195.83480351  .00000122  00000+0  41216-4 0  9991
2 02802  74.0110 110.6223 0063018  87.3799 273.4570 14.45695282107397
SL-8 R/B                
1 03230U 68040B   26195.79005161  .00001153  00000+0  86246-4 0  9997
2 03230  74.0290  53.8330 0025134 202.0324 157.9787 15.03938792109115
OAO 2                   
1 03597U 68110A   26195.51066358  .00000091  00000+0  29671-4 0  9995
2 03597  34.9933 277.1167 0004998 138.8197 221.2872 14.47361665 37484
ISIS 1                  
1 03669U 69009A   26195.80863698  .00000037  00000+0  19401-4 0  9997
2 03669  88.4450 141.3667 1707139 192.4352 162.8917 11.30436526362890
SERT 2                  
1 04327U 70009A   26195.79346183 -.00000019  00000+0  30656-4 0  9990
2 04327  99.2840 132.0253 0004531 190.1367 225.0634 13.58740961797151
SL-3 R/B                
1 05118U 71028B   26195.69737595  .00033050  00000+0  24658-3 0  9995
2 05118  81.2308 253.8479 0014626 183.5814 176.5343 15.72418933  8567
ASTEX 1                 
1 05560U 71089A   26195.52201749  .00000209  00000+0  53170-4 0  9994
2 05560  92.7006 192.6593 0016429  24.5673 335.6312 14.50871159880691
SL-8 R/B                
1 05730U 71119B   26195.74449655  .00004013  00000+0  20660-3 0  9995
2 05730  73.8886 297.7980 0542776 238.2186 116.5015 14.39730350673763
OAO 3 (COPERNICUS)      
1 06153U 72065A   26195.58147060  .00000135  00000+0  32036-4 0  9995
2 06153  35.0060 294.3145 0006004 120.9921 256.0624 14.60074679864752
ATLAS CENTAUR R/B       
1 06155U 72065B   26195.70494205  .00000356  00000+0  51604-4 0  9994
2 06155  35.0015 281.2150 0033599 358.5990   1.4613 14.77965351860063
SL-8 R/B                
1 08459U 75112B   26195.86353662  .00000115  00000+0  46532-4 0  9994
2 08459  74.0606 144.9584 0016218 207.8249 152.2040 14.38258091650158
SL-3 R/B                
1 10114U 77057B   26195.81627256  .00006361  00000+0  12180-3 0  9993
2 10114  97.5846  13.7074 0007168 171.5310 188.6063 15.48406667687987
SEASAT 1                
1 10967U 78064A   26195.49168775  .00000026  00000+0  45877-4 0  9990
2 10967 108.0181  31.6081 0001106 254.8123 105.2901 14.46259946524847
SL-14 R/B               
1 11267U 79011B   26195.80615234  .00000240  00000+0  21130-4 0  9993
2 11267  82.5254 335.9420 0015825 358.4592   1.6576 14.92037833547739
SL-8 R/B                
1 11574U 79089B   26195.53141701  .00000057  00000+0  25198-4 0  9996
2 11574  74.0670 216.2378 0015980 351.2696   8.8180 14.42414292454391
SL-14 R/B               
1 11672U 80005B   26195.43327419  .00000282  00000+0  25779-4 0  9991
2 11672  82.5136 186.9941 0017326  99.8572 260.4604 14.91049652495372
SL-8 R/B                
1 12139U 81003B   26195.37148616  .00011489  00000+0  27230-3 0  9996
2 12139  82.9360 172.5007 0250141  96.4658 266.5120 15.15045752333836
SL-3 R/B                
1 12465U 81046B   26195.85335395  .00007026  00000+0  14885-3 0  9994
2 12465  81.2316 136.7278 0015792 298.5104  61.4550 15.44775077458047
SL-3 R/B                
1 12904U 81103B   26195.79060022  .00002394  00000+0  10211-3 0  9993
2 12904  81.1571  64.1979 0012040 213.2589 146.7888 15.22486569992565
SL-3 R/B                
1 13068U 82013B   26195.81920385  .00002245  00000+0  93789-4 0  9993
2 13068  81.1733  11.6162 0022905 109.6891 250.6816 15.22960501423695
SL-3 R/B                
1 13154U 82039B   26195.78861441  .00001705  00000+0  10065-3 0  9995
2 13154  81.1509  69.2008 0028251 259.7937 100.0102 15.10696787400823
SL-3 R/B                
1 13403U 82079B   26195.78917186  .00003042  00000+0  11621-3 0  9999
2 13403  81.1443  42.8308 0024956  94.9389 265.4695 15.26011194397070
SL-14 R/B               
1 13553U 82092B   26195.57836325  .00000213  00000+0  21059-4 0  9996
2 13553  82.5668  22.6678 0018963 237.8811 180.9778 14.86764595347786
SL-3 R/B                
1 13819U 83010B   26195.50313135  .00008381  00000+0  14902-3 0  9996
2 13819  81.0992 206.3040 0013365 326.3082  33.7314 15.49898482377567
SL-3 R/B                
1 14208U 83075B   26195.80100199  .00006064  00000+0  14817-3 0  9998
2 14208  97.6102 205.4432 0022135 131.0061 229.3104 15.40975348349718
COSMOS 1536             
1 14699U 84013A   26195.84865803  .00003337  00000+0  13076-3 0  9995
2 14699  82.5455 341.2860 0013893 189.5077 170.5900 15.25341527291992
SL-14 R/B               
1 14820U 84027B   26195.82155264  .00000214  00000+0  21635-4 0  9999
2 14820  82.5430 125.8042 0016321 272.9070  87.0278 14.86078982266516
SL-8 R/B                
1 15483U 85006B   26195.85446036  .00000126  00000+0  50489-4 0  9997
2 15483  74.0453  27.1482 0019261 270.2072 192.9399 14.37845205172303
